STARLINK-1013
1 14719C 19074G   21326.16440711  .00004715  00000-0  31587-3 0  3262
2 14719  53.0559  27.9956 0001340  72.9569 186.3861 15.06398497    14
